TIANYAN 01              
1 44881U 19093C   24071.51250690  .00001238  00000+0  15735-3 0  9996
2 44881  97.8345 150.1854 0013167 283.4566  76.5180 14.83351111228567
RS-44 & BREEZE-KM R/B   
1 44909U 19096E   24071.54113544  .00000030  00000+0  83741-4 0  9991
2 44909  82.5258 169.6503 0216284 279.5322  78.1398 12.79727247196483
BY70-2                  
1 45857U 20042B   24071.59616238  .00054320  00000+0  33219-2 0  9994
2 45857  97.9123 160.5494 0008419 198.9171 161.1745 15.10001530199739
SALSAT                  
1 46495U 20068K   24071.61033714  .00006890  00000+0  41180-3 0  9992
2 46495  97.8065  28.6524 0012374 290.0253  69.9644 15.11350976189565
RADFXSAT-2 (AO-109)     
1 47311U 21002C   24071.46792438  .00175009  00000+0  11024-2 0  9999
2 47311  60.6661  87.3403 0025249  71.7085 288.6771 15.75387769175918
UVSQ-SAT                
1 47438U 21006AB  24071.41269853  .00028680  00000+0  77132-3 0  9993
2 47438  97.3419 131.2944 0007527 198.2179 161.8797 15.37819969173663
LEDSAT                  
1 49069U 21073D   24071.14890476  .00013175  00000+0  59511-3 0  9994
2 49069  97.4477 143.1858 0019771 267.2956  92.6017 15.20915824141536
XW-3 (CAS-9)            
1 50466U 21131B   24071.53808750  .00000805  00000+0  27294-3 0  9998
2 50466  98.5303 157.0821 0005086  67.4021 292.7704 14.39410412115955
TEVEL-3                 
1 50988U 22002E   24071.55753304  .00057968  00000+0  12228-2 0  9993
2 50988  97.3926 144.3323 0003648 354.6252   5.4956 15.45023319119885
TEVEL-8                 
1 50989U 22002F   24071.46113445  .00053384  00000+0  11318-2 0  9997
2 50989  97.3945 144.3200 0003572 353.8842   6.2363 15.44895585119863
TEVEL-5                 
1 50998U 22002Q   24071.47143945  .00058098  00000+0  11340-2 0  9998
2 50998  97.3918 145.1399 0004170 343.2379  16.8732 15.47291665119931
TEVEL-6                 
1 50999U 22002R   24071.47262845  .00058189  00000+0  11381-2 0  9996
2 50999  97.3916 145.1234 0004167 342.9666  17.1444 15.47231999119937
TEVEL-1                 
1 51013U 22002AF  24071.44959444  .00049170  00000+0  10431-2 0  9994
2 51013  97.3919 144.1087 0003488 354.3367   5.7841 15.44897898119862
TEVEL-7                 
1 51062U 22002CG  24071.45497944  .00052667  00000+0  11136-2 0  9999
2 51062  97.3939 144.2856 0003581 353.5472   6.5729 15.44978690119869
TEVEL-4                 
1 51063U 22002CH  24071.54381879  .00056975  00000+0  12119-2 0  9997
2 51063  97.3939 144.3112 0003601 352.9814   7.1383 15.44782468119872
TEVEL-2                 
1 51069U 22002CP  24071.55708550  .00057191  00000+0  12054-2 0  9992
2 51069  97.3924 144.2988 0003613 353.7240   6.3963 15.45051487119884
GREENCUBE               
1 53106U 22080B   24069.66819003 -.00000003  00000+0  00000+0 0  9993
2 53106  70.1332 227.0918 0008274 126.4127 233.7296  6.42557646 38879
MONITOR-1 (RS32S)       
1 53374U 22096E   24071.54575840  .00634774  17388-3  15168-2 0  9997
2 53374  97.3752 351.5785 0006733 118.8551 241.3402 15.96562719 89373
KUZBASS-300 (RS34S)     
1 53375U 22096F   24071.59358867  .00114138  00000+0  11428-2 0  9992
2 53375  97.3928 348.3809 0004065  99.4490 260.7229 15.65181123 89152
UTMN (RS23S)            
1 53376U 22096G   24071.55049444  .00136445  00000+0  11768-2 0  9999
2 53376  97.3909 349.0061 0004112  93.4416 266.7315 15.68823763 89197
MIET-AIS (RS28S)        
1 53377U 22096H   24071.55289208  .00087074  00000+0  10409-2 0  9998
2 53377  97.3961 347.7252 0003582  92.5821 267.5846 15.60711898 89109
KAI-1 (RS26S)           
1 53378U 22096J   24071.56150047  .00050241  00000+0  79977-3 0  9990
2 53378  97.4004 346.2860 0002686  77.8773 282.2781 15.53125006 89007
ISOI (RS19S)            
1 53381U 22096M   24071.56516100  .00097598  00000+0  10978-2 0  9991
2 53381  97.3981 348.4543 0004656 105.2831 254.8942 15.62256174 89157
CUBESX-HSE-2 (RS21S)    
1 53383U 22096P   24071.59562910  .00132494  00000+0  11700-2 0  9995
2 53383  97.3912 349.2782 0006047 109.5850 250.6065 15.68244846 89217
SIREN (RS30S)           
1 53384U 22096Q   24071.60715200  .00069795  00000+0  93682-3 0  9993
2 53384  97.3978 347.5273 0004799 111.0540 249.1229 15.57696477 89092
CAS-5A (FO-118)         
1 54684U 22167C   24071.56221808  .00021941  00000+0  90618-3 0  9994
2 54684  97.5912 214.6323 0011188 128.3062 231.9182 15.23974929 69400
STRATOSAT-TK 1 (RS52S)  
1 57167U 23091B   24071.58280853  .00010723  00000+0  68046-3 0  9993
2 57167  97.6251 125.1170 0017478  94.7159 265.6066 15.08943805 38822
UMKA 1 (RS40S)          
1 57172U 23091G   24071.58141750  .00004319  00000+0  29876-3 0  9993
2 57172  97.6250 124.6575 0018662  94.6094 265.7265 15.06090552 38791
CUBESX-HSE 3 (RS42S)    
1 57178U 23091N   24071.60593616  .00006638  00000+0  44697-3 0  9998
2 57178  97.6297 124.9022 0019534  89.6990 270.6476 15.06878074 38800
MONITOR-4 (RS57S)       
1 57182U 23091S   24071.56814198  .00006888  00000+0  46770-3 0  9990
2 57182  97.6275 124.7598 0019397  90.6284 269.7166 15.06555516 38798
MONITOR-2 (RS39S)       
1 57184U 23091U   24071.55898776  .00004831  00000+0  33112-3 0  9997
2 57184  97.6288 124.9412 0015811  84.8015 275.5016 15.06416051 38806
SVYATOBOR 1 (RS60S)     
1 57187U 23091X   24071.59742397  .00005616  00000+0  37378-3 0  9991
2 57187  97.6291 125.2021 0015650  83.0125 277.2882 15.07436356 38820
VIZARD-METEO (RS38S)    
1 57189U 23091Z   24071.56199712  .00007912  00000+0  51142-3 0  9993
2 57189  97.6280 125.3771 0014200  81.2202 279.0634 15.08402977 38838
NANOZOND 1 (RS49S)      
1 57190U 23091AA  24071.56219362  .00010857  00000+0  67092-3 0  9992
2 57190  97.6255 125.5965 0012646  86.5526 273.7149 15.09973587 38853
POLYTECH-UNIVERSE 3 (R*)
1 57191U 23091AB  24071.55749790  .00005202  00000+0  35660-3 0  9999
2 57191  97.6255 124.6810 0021374 100.5751 259.7885 15.06285688 38797
UTMN 2 (RS27S)          
1 57203U 23091AP  24071.59329494  .00006177  00000+0  40371-3 0  9999
2 57203  97.6280 125.3345 0014846  81.6280 278.6631 15.08075555 38838
ARCCUBE 1 (RS25S)       
1 57205U 23091AR  24071.59359209  .00010994  00000+0  66828-3 0  9995
2 57205  97.6230 125.6453 0013034  87.9733 272.2989 15.10569066 38865
KUZGTU 1 (RS47S)        
1 57217U 23091AV  24071.60753877  .00006431  00000+0  43407-3 0  9998
2 57217  97.6272 124.8176 0019437  90.8552 269.4903 15.06802477 38801
HADES-D (SO-121)        
1 58567U 23174CY  24071.45776408  .00026625  00000+0  12372-2 0  9990
2 58567  97.4646 147.6177 0014640 210.1729 149.8664 15.19867409 18893
